$$SOE
2460154.500000000, A.D. 2023-Jul-29 00:00:00.0000, 3.554416861550125E+08, -3.888247848578329E+08, 6.281221684312910E+06,
2460161.500000000, A.D. 2023-Aug-05 00:00:00.0000, 3.618542779393978E+08, -3.826177625425132E+08, 5.963761370506555E+06,
2460168.500000000, A.D. 2023-Aug-12 00:00:00.0000, 3.681465717033312E+08, -3.762835597270497E+08, 5.644319208015114E+06,
2460175.500000000, A.D. 2023-Aug-19 00:00:00.0000, 3.743163299470685E+08, -3.698241360027536E+08, 5.322999273766682E+06,
2460182.500000000, A.D. 2023-Aug-26 00:00:00.0000, 3.803613343603935E+08, -3.632414812329483E+08, 4.999906255901262E+06,
2460189.500000000, A.D. 2023-Sep-02 00:00:00.0000, 3.862793857970814E+08, -3.565376158614346E+08, 4.675145465761453E+06,
2460196.500000000, A.D. 2023-Sep-09 00:00:00.0000, 3.920683042846321E+08, -3.497145913496533E+08, 4.348822838588580E+06,
2460203.500000000, A.D. 2023-Sep-16 00:00:00.0000, 3.977259292392847E+08, -3.427744908005092E+08, 4.021044902787074E+06,
2460210.500000000, A.D. 2023-Sep-23 00:00:00.0000, 4.032501203043090E+08, -3.357194294822685E+08, 3.691918703109995E+06,
2460217.500000000, A.D. 2023-Sep-30 00:00:00.0000, 4.086387584736621E+08, -3.285515540625315E+08, 3.361551806427315E+06,
2460224.500000000, A.D. 2023-Oct-07 00:00:00.0000, 4.138897451481856E+08, -3.212730410961772E+08, 3.030052561813444E+06,
2460231.500000000, A.D. 2023-Oct-14 00:00:00.0000, 4.190010001638717E+08, -3.138860980804094E+08, 2.697530248875320E+06,
2460238.500000000, A.D. 2023-Oct-21 00:00:00.0000, 4.239704620206578E+08, -3.063929654729127E+08, 2.364094949202985E+06,
2460245.500000000, A.D. 2023-Oct-28 00:00:00.0000, 4.287960888882704E+08, -2.987959174120761E+08, 2.029857456479251E+06,
2460252.500000000, A.D. 2023-Nov-04 00:00:00.0000, 4.334758591401287E+08, -2.910972619092068E+08, 1.694929277191222E+06,
2460259.500000000, A.D. 2023-Nov-11 00:00:00.0000, 4.380077715937555E+08, -2.832993411120968E+08, 1.359422656869337E+06,
2460266.500000000, A.D. 2023-Nov-18 00:00:00.0000, 4.423898456780847E+08, -2.754045317036561E+08, 1.023450606684372E+06,
2460273.500000000, A.D. 2023-Nov-25 00:00:00.0000, 4.466201216014475E+08, -2.674152454124753E+08, 6.871269257583022E+05,
2460280.500000000, A.D. 2023-Dec-02 00:00:00.0000, 4.506966605493320E+08, -2.593339296459900E+08, 3.505662158264071E+05,
2460287.500000000, A.D. 2023-Dec-09 00:00:00.0000, 4.546175449904429E+08, -2.511630683045518E+08, 1.388387633828819E+04,
2460294.500000000, A.D. 2023-Dec-16 00:00:00.0000, 4.583808793791469E+08, -2.429051827628304E+08, -3.228039454092234E+05,
2460301.500000000, A.D. 2023-Dec-23 00:00:00.0000, 4.619847916038585E+08, -2.345628323297632E+08, -6.593804249775857E+05,
2460308.500000000, A.D. 2023-Dec-30 00:00:00.0000, 4.654274338432716E+08, -2.261386131371208E+08, -9.957279437009245E+05,
2460315.500000000, A.D. 2024-Jan-06 00:00:00.0000, 4.687069810596781E+08, -2.176351578176408E+08, -1.331727814317197E+06,
2460322.500000000, A.D. 2024-Jan-13 00:00:00.0000, 4.718216303023145E+08, -2.090551377790060E+08, -1.667260288361862E+06,
2460329.500000000, A.D. 2024-Jan-20 00:00:00.0000, 4.747696020448577E+08, -2.004012649874867E+08, -2.002204705834240E+06,
2460336.500000000, A.D. 2024-Jan-27 00:00:00.0000, 4.775491415298836E+08, -1.916762926078494E+08, -2.336439548026785E+06,
2460343.500000000, A.D. 2024-Feb-03 00:00:00.0000, 4.801585196935102E+08, -1.828830154472550E+08, -2.669842432007171E+06,
2460350.500000000, A.D. 2024-Feb-10 00:00:00.0000, 4.825960339490293E+08, -1.740242704932832E+08, -3.002290096242666E+06,
2460357.500000000, A.D. 2024-Feb-17 00:00:00.0000, 4.848600089696723E+08, -1.651029375370488E+08, -3.333658389669068E+06,
2460364.500000000, A.D. 2024-Feb-24 00:00:00.0000, 4.869487975080011E+08, -1.561219398654513E+08, -3.663822266488567E+06,
2460371.500000000, A.D. 2024-Mar-02 00:00:00.0000, 4.888607812828542E+08, -1.470842450539500E+08, -3.992655792213373E+06,
2460378.500000000, A.D. 2024-Mar-09 00:00:00.0000, 4.905943720740015E+08, -1.379928659215750E+08, -4.320032179001234E+06,
2460385.500000000, A.D. 2024-Mar-16 00:00:00.0000, 4.921480134207792E+08, -1.288508614493596E+08, -4.645823870592542E+06,
2460392.500000000, A.D. 2024-Mar-23 00:00:00.0000, 4.935201828226442E+08, -1.196613365510101E+08, -4.969902576796465E+06,
2460399.500000000, A.D. 2024-Mar-30 00:00:00.0000, 4.947093922034034E+08, -1.104274407212033E+08, -5.292139054118477E+06,
2460406.500000000, A.D. 2024-Apr-06 00:00:00.0000, 4.957141868970805E+08, -1.011523689289598E+08, -5.612402931321539E+06,
2460413.500000000, A.D. 2024-Apr-13 00:00:00.0000, 4.965331467060918E+08, -9.183936391844831E+07, -5.930562837518141E+06,
2460420.500000000, A.D. 2024-Apr-20 00:00:00.0000, 4.971648880792536E+08, -8.249171723794514E+07, -6.246486526862707E+06,
2460427.500000000, A.D. 2024-Apr-27 00:00:00.0000, 4.976080658932856E+08, -7.311276955534703E+07, -6.560040906639237E+06,
2460434.500000000, A.D. 2024-May-04 00:00:00.0000, 4.978613749270968E+08, -6.370591096033615E+07, -6.871092034311555E+06,
2460441.500000000, A.D. 2024-May-11 00:00:00.0000, 4.979235512693548E+08, -5.427458135161111E+07, -7.179505113678340E+06,
2460448.500000000, A.D. 2024-May-18 00:00:00.0000, 4.977933737440491E+08, -4.482227088450232E+07, -7.485144495791936E+06,
2460455.500000000, A.D. 2024-May-25 00:00:00.0000, 4.974696653814930E+08, -3.535252048346366E+07, -7.787873687371222E+06,
2460462.500000000, A.D. 2024-Jun-01 00:00:00.0000, 4.969512949968540E+08, -2.586892247451121E+07, -8.087555376779631E+06,
2460469.500000000, A.D. 2024-Jun-08 00:00:00.0000, 4.962371791238700E+08, -1.637512135821680E+07, -8.384051501968022E+06,
2460476.500000000, A.D. 2024-Jun-15 00:00:00.0000, 4.953262847033646E+08, -6.874814175127177E+06, -8.677223352418521E+06,
2460483.500000000, A.D. 2024-Jun-22 00:00:00.0000, 4.942176315217735E+08, 2.628250715965548E+06, -8.966931516663402E+06,
2460490.500000000, A.D. 2024-Jun-29 00:00:00.0000, 4.929102922806502E+08, 1.213027463029595E+07, -9.253035629344326E+06,
2460497.500000000, A.D. 2024-Jul-06 00:00:00.0000, 4.914033929439058E+08, 2.162740685163706E+07, -9.535394362363344E+06,
2460504.500000000, A.D. 2024-Jul-13 00:00:00.0000, 4.896961153116106E+08, 3.111574305685254E+07, -9.813865608214101E+06,
2460511.500000000, A.D. 2024-Jul-20 00:00:00.0000, 4.877876998349333E+08, 4.059132502393846E+07, -1.008830657952495E+07,
2460518.500000000, A.D. 2024-Jul-27 00:00:00.0000, 4.856774480172476E+08, 5.005014066879761E+07, -1.035857384316479E+07,
2460525.500000000, A.D. 2024-Aug-03 00:00:00.0000, 4.833647246752658E+08, 5.948812404051331E+07, -1.062452334480404E+07,
2460532.500000000, A.D. 2024-Aug-10 00:00:00.0000, 4.808489602266501E+08, 6.890115527566753E+07, -1.088601043980573E+07,
2460539.500000000, A.D. 2024-Aug-17 00:00:00.0000, 4.781296530519654E+08, 7.828506053878559E+07, -1.114288993337328E+07,
2460546.500000000, A.D. 2024-Aug-24 00:00:00.0000, 4.752063719593107E+08, 8.763561193231422E+07, -1.139501613473865E+07,
2460553.500000000, A.D. 2024-Aug-31 00:00:00.0000, 4.720787588677413E+08, 9.694852732038711E+07, -1.164224294147420E+07,
2460560.500000000, A.D. 2024-Sep-07 00:00:00.0000, 4.687465320749674E+08, 1.062194701981926E+08, -1.188442397764399E+07,
2460567.500000000, A.D. 2024-Sep-14 00:00:00.0000, 4.652094901930162E+08, 1.154440506084233E+08, -1.212141271271298E+07,
2460574.500000000, A.D. 2024-Sep-21 00:00:00.0000, 4.614675147214943E+08, 1.246178275246454E+08, -1.235306234167675E+07,
2460581.500000000, A.D. 2024-Sep-28 00:00:00.0000, 4.575205707720205E+08, 1.337363094811264E+08, -1.257922564574387E+07,
2460588.500000000, A.D. 2024-Oct-05 00:00:00.0000, 4.533687096130162E+08, 1.427949534559462E+08, -1.279975517049601E+07,
2460595.500000000, A.D. 2024-Oct-12 00:00:00.0000, 4.490120726707284E+08, 1.517891649934283E+08, -1.301450344521754E+07,
2460602.500000000, A.D. 2024-Oct-19 00:00:00.0000, 4.444508952322841E+08, 1.607142993024325E+08, -1.322332310506535E+07,
2460609.500000000, A.D. 2024-Oct-26 00:00:00.0000, 4.396855098155304E+08, 1.695656625369223E+08, -1.342606697873068E+07,
2460616.500000000, A.D. 2024-Nov-02 00:00:00.0000, 4.347163494599879E+08, 1.783385131186035E+08, -1.362258817746267E+07,
2460623.500000000, A.D. 2024-Nov-09 00:00:00.0000, 4.295439510324044E+08, 1.870280631309303E+08, -1.381274019276977E+07,
2460630.500000000, A.D. 2024-Nov-16 00:00:00.0000, 4.241689585696984E+08, 1.956294797935941E+08, -1.399637700530376E+07,
2460637.500000000, A.D. 2024-Nov-23 00:00:00.0000, 4.185921267031159E+08, 2.041378869764849E+08, -1.417335321346565E+07,
2460644.500000000, A.D. 2024-Nov-30 00:00:00.0000, 4.128143243687398E+08, 2.125483667190107E+08, -1.434352420450745E+07,
2460651.500000000, A.D. 2024-Dec-07 00:00:00.0000, 4.068365392198066E+08, 2.208559611826795E+08, -1.450674637246771E+07,
2460658.500000000, A.D. 2024-Dec-14 00:00:00.0000, 4.006598820452383E+08, 2.290556762670109E+08, -1.466287721987388E+07,
2460665.500000000, A.D. 2024-Dec-21 00:00:00.0000, 3.942855888671360E+08, 2.371424856558971E+08, -1.481177523173758E+07,
2460672.500000000, A.D. 2024-Dec-28 00:00:00.0000, 3.877150226830324E+08, 2.451113323356823E+08, -1.495329994518593E+07,
2460679.500000000, A.D. 2025-Jan-04 00:00:00.0000, 3.809496774411165E+08, 2.529571299676630E+08, -1.508731225880644E+07,
2460686.500000000, A.D. 2025-Jan-11 00:00:00.0000, 3.739911824154106E+08, 2.606747657827775E+08, -1.521367467874007E+07,
2460693.500000000, A.D. 2025-Jan-18 00:00:00.0000, 3.668413060535828E+08, 2.682591040894042E+08, -1.533225149215427E+07,
2460700.500000000, A.D. 2025-Jan-25 00:00:00.0000, 3.595019595317289E+08, 2.757049899290287E+08, -1.544290892897035E+07,
2460707.500000000, A.D. 2025-Feb-01 00:00:00.0000, 3.519752001960619E+08, 2.830072528575967E+08, -1.554551533151582E+07,
2460714.500000000, A.D. 2025-Feb-08 00:00:00.0000, 3.442632349389363E+08, 2.901607108789467E+08, -1.563994133569205E+07,
2460721.500000000, A.D. 2025-Feb-15 00:00:00.0000, 3.363684235253325E+08, 2.971601745162916E+08, -1.572606006775503E+07,
$$EOE